id,spkid,full_name,pdes,name,prefix,neo,pha,H,diameter,albedo,diameter_sigma,orbit_id,epoch,epoch_mjd,epoch_cal,equinox,e,a,q,i,om,w,ma,ad,n,tp,tp_cal,per,per_y,moid,moid_ld,sigma_e,sigma_a,sigma_q,sigma_i,sigma_om,sigma_w,sigma_ma,sigma_ad,sigma_n,sigma_tp,sigma_per,class,rms
a0001375,2001375,  1375 Alfreda (1935 UB),1375,Alfreda,,N,N,11.4,13.928,0.204,0.174,JPL 38,2459000.5,59000,20200531,J2000,0.071135566,2.447402373,2.27330502,5.819601787,52.76332112,32.76130899,355.9620713,2.621499725,0.257422207,2459016.186,20200615.69,1398.480748,3.828831616,1.29162,502.6597554,3.13E-08,7.33E-09,7.82E-08,3.85E-06,3.90E-05,5.05E-05,3.14E-05,7.85E-09,1.16E-09,0.000122,6.28E-06,MBA,0.41755
a0001376,2001376,  1376 Michelle (1935 UH),1376,Michelle,,N,N,12.4,7.053,0.267,0.119,JPL 37,2459000.5,59000,20200531,J2000,0.215341255,2.227886286,1.748130458,3.551266909,163.4374961,156.1751398,212.3338087,2.707642114,0.29639068,2459498.715,20211011.21,1214.61309,3.325429404,0.735993,286.4263958,3.58E-08,4.47E-09,7.92E-08,3.61E-06,4.83E-05,4.90E-05,1.06E-05,5.43E-09,8.92E-10,3.67E-05,3.66E-06,MBA,0.43516
a0001377,2001377,  1377 Roberbauxa (1936 CD),1377,Roberbauxa,,N,N,13,6.217,0.263,0.153,JPL 36,2459000.5,59000,20200531,J2000,0.092840929,2.260437208,2.050576118,6.024566756,223.2114581,356.5994578,226.8703236,2.470298298,0.290011622,2459459.549,20210902.05,1241.329561,3.398575116,1.04242,405.6785914,3.44E-08,5.82E-09,7.71E-08,3.60E-06,3.14E-05,3.66E-05,2.03E-05,6.36E-09,1.12E-09,7.04E-05,4.79E-06,MBA,0.42455
a0001378,2001378,  1378 Leonce (1936 DB),1378,Leonce,,N,N,12.2,21.228,0.061,0.07,JPL 31,2459000.5,59000,20200531,J2000,0.149728062,2.374430076,2.018911262,3.590605229,43.55760614,202.4097854,307.7446947,2.72994889,0.269379782,2459194.484,20201210.98,1336.403191,3.658872528,1.00611,391.5478287,3.46E-08,6.42E-09,8.40E-08,3.62E-06,5.12E-05,5.30E-05,1.65E-05,7.38E-09,1.09E-09,6.15E-05,5.42E-06,MBA,0.4313
a0001379,2001379,  1379 Lomonosowa (1936 FC),1379,Lomonosowa,,N,N,10.9,18.69,0.182,0.177,JPL 36,2459000.5,59000,20200531,J2000,0.09096586,2.524159706,2.294547348,15.60522364,169.863185,31.61840872,334.2835191,2.753772064,0.245769977,2459105.136,20200912.64,1464.784283,4.010360802,1.30669,508.5245473,4.96E-08,7.80E-09,1.27E-07,4.79E-06,1.29E-05,2.83E-05,2.68E-05,8.51E-09,1.14E-09,0.00010895,6.79E-06,MBA,0.4067
a0001380,2001380,  1380 Volodia (1936 FM),1380,Volodia,,N,N,11.8,21.188,0.09,0.289,JPL 31,2459000.5,59000,20200531,J2000,0.102592629,3.150731994,2.827490115,10.40950195,359.0406334,247.8428928,334.9050895,3.473973873,0.176232856,2459142.896,20201020.4,2042.751892,5.592749874,1.83608,714.5472536,4.43E-08,1.69E-08,1.45E-07,4.81E-06,2.26E-05,3.27E-05,2.50E-05,1.86E-08,1.41E-09,0.0001418,1.64E-05,MBA,0.43045
a0001381,2001381,  1381 Danubia (1930 QJ),1381,Danubia,,N,N,12.3,19.825,0.069,0.086,JPL 25,2459000.5,59000,20200531,J2000,0.180976291,2.489793386,2.039199813,4.695601671,351.8143097,28.98100506,281.0521862,2.940386958,0.250875997,2459315.189,20210410.69,1434.971878,3.928738887,1.04308,405.9354436,5.99E-08,8.60E-09,1.48E-07,4.65E-06,5.34E-05,5.49E-05,1.73E-05,1.02E-08,1.30E-09,7.00E-05,7.43E-06,MBA,0.46913
a0001382,2001382,  1382 Gerti (1925 BB),1382,Gerti,,N,N,12.1,11.939,0.196,0.189,JPL 34,2459000.5,59000,20200531,J2000,0.131427771,2.220107332,1.928323575,1.561410743,353.0010272,246.8384575,196.7612729,2.511891089,0.297949813,2459548.373,20211129.87,1208.257177,3.308027863,0.916583,356.7066061,3.66E-08,5.22E-09,8.16E-08,4.12E-06,0.00013101,0.00013187,1.66E-05,5.91E-09,1.05E-09,5.65E-05,4.26E-06,MBA,0.43502
a0001383,2001383,  1383 Limburgia (1934 RV),1383,Limburgia,,N,N,12,23.399,0.076,0.039,JPL 37,2459000.5,59000,20200531,J2000,0.189206902,3.083188607,2.499828044,0.053138477,194.1063702,163.8907635,301.0880237,3.66654917,0.182055555,2459324.093,20210419.59,1977.418376,5.413876456,1.49601,582.2022117,3.72E-08,1.33E-08,1.17E-07,4.16E-06,0.0036207,0.0036207,1.14E-05,1.58E-08,1.18E-09,6.39E-05,1.28E-05,MBA,0.46734
a0001384,2001384,  1384 Kniertje (1934 RX),1384,Kniertje,,N,N,11.7,26.517,0.064,0.09,JPL 37,2459000.5,59000,20200531,J2000,0.182328202,2.675515633,2.187693678,11.85805651,152.8510971,276.0129959,153.492628,3.163337588,0.225212678,2458318.955,20180719.45,1598.489052,4.376424509,1.2393,482.298381,3.01E-08,8.47E-09,8.02E-08,3.90E-06,1.65E-05,2.00E-05,1.22E-05,1.00E-08,1.07E-09,5.30E-05,7.59E-06,MBA,0.46616
a0001385,2001385,  1385 Gelria (1935 MJ),1385,Gelria,,N,N,10.8,19.526,0.149,0.194,JPL 36,2459000.5,59000,20200531,J2000,0.107492276,2.740438216,2.445862276,6.922104478,114.9357976,260.578169,147.5801885,3.035014157,0.217257136,2458321.212,20180721.71,1657.022669,4.536680818,1.45837,567.5538529,4.28E-08,9.91E-09,1.16E-07,3.71E-06,3.35E-05,3.74E-05,1.79E-05,1.10E-08,1.18E-09,8.16E-05,8.99E-06,MBA,0.43122
a0001386,2001386,  1386 Storeria (1935 PA),1386,Storeria,,N,N,13.4,10.614,0.143,0.154,JPL 36,2459000.5,59000,20200531,J2000,0.286559626,2.365060873,1.687329914,11.82133424,161.4630303,152.9713038,114.2464376,3.042791833,0.270982091,2458578.899,20190405.4,1328.50108,3.637237728,0.68338,265.9509946,3.00E-08,6.02E-09,7.00E-08,3.48E-06,1.61E-05,1.69E-05,5.72E-06,7.75E-09,1.03E-09,2.06E-05,5.07E-06,MBA,0.48915
a0001387,2001387,  1387 Kama (1935 QD),1387,Kama,,N,N,13.3,7.46,0.138,0.115,JPL 28,2459000.5,59000,20200531,J2000,0.208717878,2.258442326,1.787065037,5.536950877,203.0043573,125.7770153,0.80637842,2.729819615,0.290395958,2458997.723,20200528.22,1239.686676,3.394077142,0.783216,304.8041707,3.59E-08,6.70E-09,8.32E-08,3.77E-06,3.17E-05,3.25E-05,7.99E-06,8.10E-09,1.29E-09,2.75E-05,5.52E-06,MBA,0.44374
a0001388,2001388,  1388 Aphrodite (1935 SS),1388,Aphrodite,,N,N,11,21.355,0.144,0.282,JPL 37,2459000.5,59000,20200531,J2000,0.089713301,3.020244275,2.749288192,11.19057221,54.3616224,257.2763849,109.9720136,3.291200357,0.187776383,2458414.846,20181023.35,1917.174004,5.248936355,1.76271,685.9938507,2.95E-08,1.25E-08,8.83E-08,4.17E-06,1.77E-05,3.02E-05,2.52E-05,1.36E-08,1.17E-09,0.00013399,1.19E-05,MBA,0.42855
a0001389,2001389,  1389 Onnie (1935 SS1),1389,Onnie,,N,N,11.5,13.772,0.198,0.184,JPL 42,2459000.5,59000,20200531,J2000,0.015574748,2.865120169,2.820496643,2.048280597,174.5544288,295.1790759,69.39954993,2.909743695,0.203230933,2458659.019,20190624.52,1771.383886,4.849784768,1.83782,715.2244094,2.79E-08,9.65E-09,7.94E-08,3.50E-06,8.35E-05,0.00014684,0.00011934,9.80E-09,1.03E-09,0.00058747,8.95E-06,MBA,0.4352
a0001390,2001390,  1390 Abastumani (1935 TA),1390,Abastumani,,N,N,9.2,95.849,0.033,2.283,JPL 39,2459000.5,59000,20200531,J2000,0.035656241,3.438366335,3.315767116,19.92550696,28.90326594,332.2842168,116.663433,3.560965554,0.154588027,2458245.827,20180507.33,2328.770258,6.375825485,2.32548,905.0070516,4.23E-08,1.70E-08,1.45E-07,4.55E-06,1.14E-05,5.87E-05,5.74E-05,1.76E-08,1.15E-09,0.0003711,1.73E-05,OMB,0.41122
a0001391,2001391,  1391 Carelia (1936 DA),1391,Carelia,,N,N,11.8,11.079,0.214,0.111,JPL 31,2459000.5,59000,20200531,J2000,0.164831129,2.547784035,2.127829916,7.596225273,103.3306384,85.87526087,228.1323607,2.967738155,0.24235956,2459544.599,20211126.1,1485.396324,4.066793495,1.14486,445.5451662,3.92E-08,9.03E-09,9.84E-08,4.05E-06,3.26E-05,3.59E-05,1.78E-05,1.05E-08,1.29E-09,7.49E-05,7.89E-06,MBA,0.41234
a0001392,2001392,  1392 Pierre (1936 FO),1392,Pierre,,N,N,11.9,26.44,0.0519,1.6,JPL 31,2459000.5,59000,20200531,J2000,0.203018226,2.60711591,2.077823863,12.26412883,358.2293786,44.17728459,118.5635899,3.136407957,0.234133504,2458494.107,20190110.61,1537.584303,4.209676394,1.1028,429.176676,4.39E-08,7.98E-09,1.13E-07,5.61E-06,1.44E-05,1.93E-05,1.10E-05,9.60E-09,1.08E-09,4.69E-05,7.06E-06,MBA,0.39956
a0001393,2001393,  1393 Sofala (1936 KD),1393,Sofala,,N,N,12.1,11.214,0.223,0.495,JPL 35,2459000.5,59000,20200531,J2000,0.109901129,2.434453475,2.16690429,5.845411029,56.68579422,183.5691104,46.24139091,2.702002659,0.259478785,2458822.291,20191204.79,1387.396663,3.798485045,1.15449,449.2928733,3.44E-08,7.65E-09,8.54E-08,3.76E-06,3.89E-05,4.31E-05,1.97E-05,8.49E-09,1.22E-09,7.56E-05,6.54E-06,MBA,0.43859
a0001394,2001394,  1394 Algoa (1936 LK),1394,Algoa,,N,N,11.6,,,,JPL 32,2459000.5,59000,20200531,J2000,0.077055559,2.439776145,2.25177783,2.674385865,178.7880227,113.750299,353.8468707,2.627774461,0.258630121,2459024.291,20200623.79,1391.949239,3.81094932,1.2373,481.520041,3.19E-08,7.61E-09,7.86E-08,3.82E-06,7.64E-05,8.10E-05,2.94E-05,8.19E-09,1.21E-09,0.00011367,6.51E-06,MBA,0.41722
a0001395,2001395,  1395 Aribeda (1936 OB),1395,Aribeda,,N,N,11.5,19.919,0.123,0.108,JPL 31,2459000.5,59000,20200531,J2000,0.062161148,3.201415441,3.002411783,8.644586836,244.8619193,109.7164747,172.8767037,3.4004191,0.172064399,2457995.779,20170830.28,2092.239899,5.728240655,2.01306,783.4225602,4.05E-08,1.63E-08,1.30E-07,3.88E-06,2.81E-05,4.18E-05,3.24E-05,1.73E-08,1.31E-09,0.00018558,1.60E-05,OMB,0.42546
a0001396,2001396,  1396 Outeniqua (1936 PF),1396,Outeniqua,,N,N,11.9,11.745,0.21,0.119,JPL 38,2459000.5,59000,20200531,J2000,0.165291755,2.247761951,1.876225434,4.493055958,359.5095477,266.6597257,346.0320415,2.619298468,0.292468165,2459048.259,20200717.76,1230.903198,3.370029289,0.8671,337.449307,2.87E-08,5.61E-09,6.44E-08,3.87E-06,4.15E-05,4.34E-05,1.39E-05,6.54E-09,1.09E-09,4.76E-05,4.61E-06,MBA,0.43109
a0001397,2001397,  1397 Umtata (1936 PG),1397,Umtata,,N,N,11.4,20.798,0.084,0.292,JPL 32,2459000.5,59000,20200531,J2000,0.255488367,2.680357808,1.995557569,3.510450114,77.43474695,206.3859759,38.09662772,3.365158047,0.22460267,2458830.882,20191213.38,1602.830457,4.388310628,0.979853,381.329392,3.77E-08,9.89E-09,1.05E-07,4.04E-06,6.20E-05,6.25E-05,1.09E-05,1.24E-08,1.24E-09,4.81E-05,8.87E-06,MBA,0.4431
